[{"OBJECT_NAME":"IONOSFERA-M 1","OBJECT_ID":"2024-199A","EPOCH":"2026-03-09T23:07:06.038112","MEAN_MOTION":14.22735344,"ECCENTRICITY":0.00020871,"INCLINATION":98.7325,"RA_OF_ASC_NODE":303.1052,"ARG_OF_PERICENTER":75.9685,"MEAN_ANOMALY":284.1725,"EPHEMERIS_TYPE":0,"CLASSIFICATION_TYPE":"U","NORAD_CAT_ID":61735,"ELEMENT_SET_NO":999,"REV_AT_EPOCH":11359,"BSTAR":4.8219719e-5,"MEAN_MOTION_DOT":6.4e-7,"MEAN_MOTION_DDOT":0},{"OBJECT_NAME":"CZ-6A DEB","OBJECT_ID":"2022-151YJ","EPOCH":"2026-03-09T21:32:43.716480","MEAN_MOTION":14.25382168,"ECCENTRICITY":0.00433067,"INCLINATION":98.803,"RA_OF_ASC_NODE":80.3253,"ARG_OF_PERICENTER":238.0901,"MEAN_ANOMALY":121.6063,"EPHEMERIS_TYPE":0,"CLASSIFICATION_TYPE":"U","NORAD_CAT_ID":55536,"ELEMENT_SET_NO":999,"REV_AT_EPOCH":16629,"BSTAR":0.0023997519,"MEAN_MOTION_DOT":5.673e-5,"MEAN_MOTION_DDOT":0}]
